Name,CNIC,ADDRESS,DOB,Province,Contact,Status,City
HAMZA,3530000000000,"House # 197 St #3 Buldia Colony, Sahiwal",01/01/1997,PUNJAB,923047877535,Alive,Lahore
HAMZA,3530000000001,"House # 197 St #3 Buldia Colony, Sahiwal",02/01/1997,PUNJAB,923047877535,Alive,Lahore
ALI,3530000000002,"House # 197 St #3 Buldia Colony, Sahiwal",03/01/1997,PUNJAB,923047877535,Alive,Lahore
ALI,3530000000003,"House # 197 St #3 Buldia Colony, Sahiwal",04/01/1997,PUNJAB,923047877535,Alive,Lahore
ABDULLAH kHAN,3530000000004,"House # 197 St #3 Buldia Colony, Sahiwal",05/01/1997,PUNJAB,923047877535,Alive,Lahore
ABDULLAH kHAN,3530000000005,"House # 217 St #5 Buldia Colony, Havali",06/01/1997,PUNJAB,923047877535,Alive,Lahore
ABDULLAH kHAN,3530000000006,"House # 217 St #5 Buldia Colony, Havali",07/01/1997,PUNJAB,923047877535,Alive,Lahore
ABDULLAH kHAN,3530000000007,"House # 217 St #5 Buldia Colony, Havali",08/01/1997,PUNJAB,923047877535,Alive,Lahore
ABDULLAH kHAN,3530000000008,"House # 217 St #5 Buldia Colony, Havali",09/01/1997,PUNJAB,923047877535,Alive,Lahore
HAMZA,3530000000009,"House # 217 St #5 Buldia Colony, Havali",10/01/1997,PUNJAB,923047877535,Alive,Lahore
HAMZA,3530000000010,"House # 217 St #5 Buldia Colony, Havali",11/01/1997,PUNJAB,923047877535,Alive,Lahore
HAMZA,3530000000011,"House # 197 St #3 Buldia Colony, Sahiwal",12/01/1997,PUNJAB,923047877535,Alive,Lahore
HAMZA,3530000000012,"House # 197 St #3 Buldia Colony, Sahiwal",13/01/1997,PUNJAB,923047877535,Alive,Lahore
HAMZA,3530000000013,"House # 197 St #3 Buldia Colony, Sahiwal",14/01/1997,PUNJAB,923047877535,Alive,Lahore
HAMZA,3530000000014,"House # 197 St #3 Buldia Colony, Sahiwal",15/01/1997,PUNJAB,923047877535,Alive,Lahore
HAMZA,3530000000015,"House # 197 St #3 Buldia Colony, Sahiwal",16/01/1997,PUNJAB,923047877535,Alive,Lahore
HAMZA,3530000000016,"House # 217 St #5 Buldia Colony, Havali",17/01/1997,PUNJAB,923047877535,Alive,Lahore
HAMZA,3530000000017,"House # 217 St #5 Buldia Colony, Havali",18/01/1997,PUNJAB,923047877535,Alive,Lahore
HAMZA,3530000000018,"House # 217 St #5 Buldia Colony, Havali",19/01/1997,PUNJAB,923047877535,Alive,Lahore
HAMZA,3530000000019,"House # 217 St #5 Buldia Colony, Havali",20/01/1997,PUNJAB,923047877535,Alive,Lahore
HAMZA,3530000000020,"House # 217 St #5 Buldia Colony, Havali",21/01/1997,PUNJAB,923047877535,Alive,Lahore
HAMZA,3530000000021,"House # 217 St #5 Buldia Colony, Havali",22/01/1997,PUNJAB,923047877535,Alive,Lahore
HAMZA,3530000000022,"House # 197 St #3 Buldia Colony, Sahiwal",23/01/1997,PUNJAB,923047877535,Alive,Lahore
HAMZA,3530000000023,"House # 197 St #3 Buldia Colony, Sahiwal",24/01/1997,PUNJAB,923047877535,Alive,Lahore
HAMZA,3530000000024,"House # 197 St #3 Buldia Colony, Sahiwal",25/01/1997,PUNJAB,923047877535,Alive,Lahore
HAMZA,3530000000025,"House # 197 St #3 Buldia Colony, Sahiwal",26/01/1997,PUNJAB,923047877535,Alive,Lahore
HAMZA,3530000000026,"House # 197 St #3 Buldia Colony, Sahiwal",27/01/1997,PUNJAB,923047877535,Alive,Lahore
HAMZA,3530000000027,"House # 217 St #5 Buldia Colony, Havali",28/01/1997,PUNJAB,923047877535,Alive,Lahore
HAMZA,3530000000028,"House # 217 St #5 Buldia Colony, Havali",29/01/1997,PUNJAB,923047877535,Alive,Lahore
HAMZA,3530000000029,"House # 217 St #5 Buldia Colony, Havali",30/01/1997,PUNJAB,923047877535,Alive,Lahore
HAMZA,3530000000030,"House # 217 St #5 Buldia Colony, Havali",31/01/1997,PUNJAB,923047877535,Alive,Lahore
HAMZA,3530000000031,"House # 217 St #5 Buldia Colony, Havali",01/02/1997,PUNJAB,923047877535,Alive,Lahore
HAMZA,3530000000032,"House # 217 St #5 Buldia Colony, Havali",02/02/1997,PUNJAB,923047877535,Alive,Lahore
HAMZA,3530000000033,"House # 197 St #3 Buldia Colony, Sahiwal",03/02/1997,PUNJAB,923047877535,Alive,Lahore
HAMZA,3530000000034,"House # 197 St #3 Buldia Colony, Sahiwal",04/02/1997,PUNJAB,923047877535,Alive,Lahore
HAMZA,3530000000035,"House # 197 St #3 Buldia Colony, Sahiwal",05/02/1997,PUNJAB,923047877535,Alive,Lahore
HAMZA,3530000000036,"House # 197 St #3 Buldia Colony, Sahiwal",06/02/1997,PUNJAB,923047877535,Alive,Lahore
HAMZA,3530000000037,"House # 197 St #3 Buldia Colony, Sahiwal",07/02/1997,PUNJAB,923047877535,Alive,Lahore
HAMZA,3530000000038,"House # 217 St #5 Buldia Colony, Havali",08/02/1997,PUNJAB,923047877535,Alive,Lahore
HAMZA,3530000000039,"House # 217 St #5 Buldia Colony, Havali",09/02/1997,PUNJAB,923047877535,Alive,Lahore
HAMZA,3530000000040,"House # 217 St #5 Buldia Colony, Havali",10/02/1997,PUNJAB,923047877535,Alive,Lahore
HAMZA,3530000000041,"House # 217 St #5 Buldia Colony, Havali",11/02/1997,PUNJAB,923047877535,Alive,Lahore
HAMZA,3530000000042,"House # 217 St #5 Buldia Colony, Havali",12/02/1997,PUNJAB,923047877535,Alive,Lahore
HAMZA,3530000000043,"House # 217 St #5 Buldia Colony, Havali",13/02/1997,PUNJAB,923047877535,Alive,Lahore
HAMZA,3530000000044,"House # 197 St #3 Buldia Colony, Sahiwal",14/02/1997,PUNJAB,923047877535,Alive,Lahore
HAMZA,3530000000045,"House # 197 St #3 Buldia Colony, Sahiwal",15/02/1997,PUNJAB,923047877535,Alive,Lahore
HAMZA,3530000000046,"House # 197 St #3 Buldia Colony, Sahiwal",16/02/1997,PUNJAB,923047877535,Alive,Lahore
HAMZA,3530000000047,"House # 197 St #3 Buldia Colony, Sahiwal",17/02/1997,PUNJAB,923047877535,Alive,Lahore
HAMZA,3530000000048,"House # 197 St #3 Buldia Colony, Sahiwal",18/02/1997,PUNJAB,923047877535,Alive,Lahore
HAMZA,3530000000049,"House # 217 St #5 Buldia Colony, Havali",19/02/1997,PUNJAB,923047877535,Alive,Multan
HAMZA,3530000000050,"House # 217 St #5 Buldia Colony, Havali",20/02/1997,PUNJAB,923047877535,Alive,Multan
HAMZA,3530000000051,"House # 217 St #5 Buldia Colony, Havali",21/02/1997,PUNJAB,923047877535,Alive,Multan
HAMZA,3530000000052,"House # 217 St #5 Buldia Colony, Havali",22/02/1997,PUNJAB,923047877535,Alive,Multan
HAMZA,3530000000053,"House # 217 St #5 Buldia Colony, Havali",23/02/1997,PUNJAB,923047877535,Alive,Multan
HAMZA,3530000000054,"House # 217 St #5 Buldia Colony, Havali",24/02/1997,PUNJAB,923047877535,Alive,Multan
HAMZA,3530000000055,"House # 197 St #3 Buldia Colony, Sahiwal",25/02/1997,PUNJAB,923047877535,Alive,Multan
HAMZA,3530000000056,"House # 197 St #3 Buldia Colony, Sahiwal",26/02/1997,PUNJAB,923047877535,Alive,Multan
HAMZA,3530000000057,"House # 197 St #3 Buldia Colony, Sahiwal",27/02/1997,PUNJAB,923047877535,Alive,Multan
HAMZA,3530000000058,"House # 197 St #3 Buldia Colony, Sahiwal",28/02/1997,PUNJAB,923047877535,Alive,Multan
ABDULLAH kHAN,3530000000059,"House # 197 St #3 Buldia Colony, Sahiwal",01/03/1997,PUNJAB,923047877535,Alive,Multan
ATIF,3530000000060,"House # 217 St #5 Buldia Colony, Havali",02/03/1997,PUNJAB,923047877535,Alive,Multan
ATIF,3530000000061,"House # 217 St #5 Buldia Colony, Havali",03/03/1997,PUNJAB,923047877535,Alive,Multan
ATIF,3530000000062,"House # 217 St #5 Buldia Colony, Havali",04/03/1997,PUNJAB,923047877535,Alive,Multan
ATIF,3530000000063,"House # 217 St #5 Buldia Colony, Havali",05/03/1997,PUNJAB,923047877535,Alive,Multan
ATIF,3530000000064,"House # 217 St #5 Buldia Colony, Havali",06/03/1997,PUNJAB,923047877535,Alive,Multan
ATIF,3530000000065,"House # 217 St #5 Buldia Colony, Havali",07/03/1997,PUNJAB,923047877535,Alive,Multan
ATIF,3530000000066,"House # 197 St #3 Buldia Colony, Sahiwal",08/03/1997,PUNJAB,923047877535,Alive,Multan
ATIF,3530000000067,"House # 197 St #3 Buldia Colony, Sahiwal",09/03/1997,PUNJAB,923047877535,Alive,Multan
ATIF,3530000000068,"House # 197 St #3 Buldia Colony, Sahiwal",10/03/1997,PUNJAB,923047877535,Alive,Multan
ATIF,3530000000069,"House # 197 St #3 Buldia Colony, Sahiwal",11/03/1997,PUNJAB,923047877535,Alive,Multan
ATIF,3530000000070,"House # 197 St #3 Buldia Colony, Sahiwal",12/03/1997,PUNJAB,923047877535,Alive,Multan
ATIF,3530000000071,"House # 217 St #5 Buldia Colony, Havali",13/03/1997,PUNJAB,923047877535,Alive,Multan
ATIF AHMAD,3530000000072,"House # 217 St #5 Buldia Colony, Havali",14/03/1997,PUNJAB,923047877535,Alive,Multan
ATIF AHMAD,3530000000073,"House # 217 St #5 Buldia Colony, Havali",15/03/1997,PUNJAB,923047877535,Alive,Multan
ATIF AHMAD,3530000000074,"House # 217 St #5 Buldia Colony, Havali",16/03/1997,PUNJAB,923047877535,Alive,Multan
ATIF AHMAD,3530000000075,"House # 217 St #5 Buldia Colony, Havali",17/03/1997,PUNJAB,923047877535,Alive,Multan
ATIF AHMAD,3530000000076,"House # 217 St #5 Buldia Colony, Havali",18/03/1997,PUNJAB,923047877535,Alive,Multan
ATIF AHMAD,3530000000077,"House # 197 St #3 Buldia Colony, Sahiwal",19/03/1997,PUNJAB,923047877535,Alive,Multan
ATIF AHMAD,3530000000078,"House # 197 St #3 Buldia Colony, Sahiwal",20/03/1997,PUNJAB,923047877535,Alive,Multan
ATIF AHMAD,3530000000079,"House # 197 St #3 Buldia Colony, Sahiwal",21/03/1997,PUNJAB,923047877535,Alive,Multan
ATIF AHMAD,3530000000080,"House # 197 St #3 Buldia Colony, Sahiwal",22/03/1997,PUNJAB,923047877535,Alive,Multan
ATIF AHMAD,3530000000081,"House # 197 St #3 Buldia Colony, Sahiwal",23/03/1997,PUNJAB,923047877535,Alive,Multan
ATIF AHMAD,3530000000082,"House # 217 St #5 Buldia Colony, Havali",24/03/1997,PUNJAB,923047877535,Alive,Multan
ATIF AHMAD,3530000000083,"House # 217 St #5 Buldia Colony, Havali",25/03/1997,PUNJAB,923047877535,Alive,Multan
ATIF AHMAD,3530000000084,"House # 217 St #5 Buldia Colony, Havali",26/03/1997,PUNJAB,923047877535,Alive,Multan
ATIF AHMAD,3530000000085,"House # 217 St #5 Buldia Colony, Havali",27/03/1997,PUNJAB,923047877535,Alive,Multan
ATIF AHMAD,3530000000086,"House # 217 St #5 Buldia Colony, Havali",28/03/1997,PUNJAB,923047877535,Alive,Multan
ATIF AHMAD,3530000000087,"House # 217 St #5 Buldia Colony, Havali",29/03/1997,PUNJAB,923047877535,Alive,Multan
ATIF AHMAD,3530000000088,"House # 197 St #3 Buldia Colony, Sahiwal",30/03/1997,PUNJAB,923047877535,Alive,Multan
ATIF AHMAD,3530000000089,"House # 197 St #3 Buldia Colony, Sahiwal",31/03/1997,PUNJAB,923047877535,Alive,Multan
ATIF AHMAD,3530000000090,"House # 197 St #3 Buldia Colony, Sahiwal",01/04/1997,PUNJAB,923047877535,Alive,Multan
ATIF AHMAD,3530000000091,"House # 197 St #3 Buldia Colony, Sahiwal",02/04/1997,PUNJAB,923047877535,Alive,Multan
ATIF AHMAD,3530000000092,"House # 197 St #3 Buldia Colony, Sahiwal",03/04/1997,PUNJAB,923047877535,Alive,Multan
ATIF AHMAD,3530000000093,"House # 217 St #5 Buldia Colony, Havali",04/04/1997,PUNJAB,923047877535,Alive,Multan
ATIF AHMAD,3530000000094,"House # 217 St #5 Buldia Colony, Havali",05/04/1997,PUNJAB,923047877535,Alive,Multan
ATIF AHMAD,3530000000095,"House # 217 St #5 Buldia Colony, Havali",06/04/1997,PUNJAB,923047877535,Alive,Multan
ATIF AHMAD,3530000000096,"House # 217 St #5 Buldia Colony, Havali",07/04/1997,PUNJAB,923047877535,Alive,Multan
ATIF AHMAD,3530000000097,"House # 217 St #5 Buldia Colony, Havali",08/04/1997,PUNJAB,923047877535,Alive,Multan
Ali Hassan,3530000000098,"House#234 st# fasail colony, Okara",09/04/1997,PUNJAB,923047877535,Alive,Sahiwal
Ali Hassan,3530000000099,"House#234 st# fasail colony, Okara",10/04/1997,PUNJAB,923047877535,Alive,Sahiwal
Ali Hassan,3530000000100,"House#234 st# fasail colony, Okara",10/05/1997,PUNJAB,923047877535,Alive,Sahiwal
Ali Hassan,3530000000101,"House#234 st# fasail colony, Okara",10/06/1997,PUNJAB,923047877535,Alive,Sahiwal
Ali Hassan,3530000000102,"House#234 st# fasail colony, Okara",10/07/1997,PUNJAB,923047877535,Alive,Sahiwal
Ali Hassan,3530000000103,"House#234 st# fasail colony, Okara",10/08/1997,PUNJAB,923047877535,Alive,Sahiwal
Ali Hassan,3530000000104,"House#234 st# fasail colony, Okara",10/09/1997,PUNJAB,923047877535,Alive,Sahiwal
Ali Hassan,3530000000105,"House#234 st# fasail colony, Okara",10/10/1997,PUNJAB,923047877535,Alive,Sahiwal
Ali Hassan,3530000000106,"House#234 st# fasail colony, Okara",10/11/1997,PUNJAB,923047877535,Alive,Sahiwal
Ali Hassan,3530000000107,"House#234 st# fasail colony, Okara",10/12/1997,PUNJAB,923047877535,Alive,Sahiwal
Ali Hassan,3530000000108,"House#234 st# fasail colony, Okara",10/13/1997,PUNJAB,923047877535,Alive,Sahiwal
Ali Hassan,3530000000109,"House#234 st# fasail colony, Okara",10/14/1997,PUNJAB,923047877535,Alive,Sahiwal
Ali Hassan,3530000000110,"House#234 st# fasail colony, Okara",10/15/1997,PUNJAB,923047877535,Alive,Sahiwal
Ali Hassan,3530000000111,"House#234 st# fasail colony, Okara",10/16/1997,PUNJAB,923047877535,Alive,Sahiwal
Ali Hassan,3530000000112,"House#234 st# fasail colony, Okara",10/17/1997,PUNJAB,923047877535,Alive,Sahiwal
Ali Hassan,3530000000113,"House#234 st# fasail colony, Okara",10/18/1997,PUNJAB,923047877535,Alive,Sahiwal
Ali Hassan,3530000000114,"House#234 st# fasail colony, Okara",10/19/1997,PUNJAB,923047877535,Alive,Sahiwal
Ali Hassan,3530000000115,"House#234 st# fasail colony, Okara",10/20/1997,PUNJAB,923047877535,Alive,Sahiwal
Ali Hassan,3530000000116,"House#234 st# fasail colony, Okara",10/21/1997,PUNJAB,923047877535,Alive,Sahiwal
Ali Hassan,3530000000117,"House#234 st# fasail colony, Okara",10/22/1997,PUNJAB,923047877535,Alive,Sahiwal
Ali Hassan,3530000000118,"House#234 st# fasail colony, Okara",10/23/1997,PUNJAB,923047877535,Alive,Sahiwal
Ali Hassan,3530000000119,"House#234 st# fasail colony, Okara",10/24/1997,PUNJAB,923047877535,Alive,Sahiwal
Ali Hassan,3530000000120,"House#234 st# fasail colony, Okara",10/25/1997,PUNJAB,923047877535,Alive,Sahiwal
Ali Hassan,3530000000121,"House#234 st# fasail colony, Okara",10/26/1997,PUNJAB,923047877535,Alive,Sahiwal
Ali Hassan,3530000000122,"House#234 st# fasail colony, Okara",10/27/1997,PUNJAB,923047877535,Alive,Sahiwal
Ali Hassan,3530000000123,"House#234 st# fasail colony, Okara",10/28/1997,PUNJAB,923047877535,Alive,Sahiwal
Hussain,3530000000124,"House#234 st# fasail colony, Okara",10/29/1997,PUNJAB,923047877535,Alive,Sahiwal
Hussain,3530000000125,"House#234 st# fasail colony, Okara",10/30/1997,PUNJAB,923047877535,Alive,Sahiwal
Hussain,3530000000126,"House#234 st# fasail colony, Okara",10/31/1997,PUNJAB,923047877535,Alive,Sahiwal
Hussain,3530000000127,"House#234 st# fasail colony, Okara",11/01/1997,PUNJAB,923047877535,Alive,Sahiwal
Hussain,3530000000128,"House#234 st# fasail colony, Okara",11/02/1997,PUNJAB,923047877535,Alive,Sahiwal
Hussain,3530000000129,"House#234 st# fasail colony, Okara",11/03/1997,PUNJAB,923047877535,Alive,Sahiwal
Shazaib Ahmad,3530000000130,"House#234 st# fasail colony, Okara",11/04/1997,PUNJAB,923047877535,Alive,Sahiwal
Shazaib Ahmad,3530000000131,"House#234 st# fasail colony, Okara",11/05/1997,PUNJAB,923047877535,Alive,Sahiwal
Shazaib Ahmad,3530000000132,"House#234 st# fasail colony, Okara",11/06/1997,PUNJAB,923047877535,Alive,Sahiwal
Shazaib Ahmad,3530000000133,"House#234 st# fasail colony, Okara",11/07/1997,PUNJAB,923047877535,Alive,Sahiwal
Shazaib Ahmad,3530000000134,"House#234 st# fasail colony, Okara",11/08/1997,PUNJAB,923047877535,Alive,Sahiwal
Shazaib Ahmad,3530000000135,"House#234 st# fasail colony, Okara",11/09/1997,PUNJAB,923047877535,Alive,Sahiwal
Shazaib Ahmad,3530000000136,"House#234 st# fasail colony, Okara",11/10/1997,PUNJAB,923047877535,Alive,Sahiwal
Arham ,3530000000137,"House#234 st# fasail colony, Okara",11/11/1997,PUNJAB,923047877535,Alive,Sahiwal
Arham ,3530000000138,"House#234 st# fasail colony, Okara",11/12/1997,PUNJAB,923047877535,Alive,Sahiwal
Arham ,3530000000139,"House#234 st# fasail colony, Okara",11/13/1997,PUNJAB,923047877535,Alive,Sahiwal
Arham ,3530000000140,"House#234 st# fasail colony, Okara",11/14/1997,PUNJAB,923047877535,Alive,Sahiwal
Arham ,3530000000141,"House#234 st# fasail colony, Okara",11/15/1997,PUNJAB,923047877535,Alive,Sahiwal
Ali Waris,3530000000142,"House#234 st# fasail colony, Okara",11/16/1997,PUNJAB,923047877535,Alive,Sahiwal
Ali Waris,3530000000143,"House#234 st# fasail colony, Okara",11/17/1997,PUNJAB,923047877535,Alive,Sahiwal
Ali Waris,3530000000144,"House#234 st# fasail colony, Okara",11/18/1997,PUNJAB,923047877535,Alive,Sahiwal
Ali Waris,3530000000145,"House#234 st# fasail colony, Okara",11/19/1997,PUNJAB,923047877535,Alive,Sahiwal
Ali Waris,3530000000146,"House#234 st# fasail colony, Okara",11/20/1997,PUNJAB,923047877535,Alive,Sahiwal
Ali Waris,3530000000147,"House#234 st# fasail colony, Okara",11/21/1997,PUNJAB,923047877535,Alive,Sahiwal
Ali Waris,3530000000148,"House#234 st# fasail colony, Okara",11/22/1997,PUNJAB,923047877535,Alive,Sahiwal
Khurram Shezad,3530000000149,"House#234 st# fasail colony, karachi",11/23/1997,SINDH,923047877535,Alive,Karachi
Khurram Shezad,3530000000150,"House#234 st# fasail colony, karachi",11/24/1997,SINDH,923047877535,Alive,Karachi
Khurram Shezad,3530000000151,"House#234 st# fasail colony, karachi",11/25/1997,SINDH,923047877535,Alive,Karachi
Khurram Shezad,3530000000152,"House#234 st# fasail colony, karachi",11/26/1997,SINDH,923047877535,Alive,Karachi
Khurram Shezad,3530000000153,"House#234 st# fasail colony, karachi",11/27/1997,SINDH,923047877535,Alive,Karachi
Khurram Shezad,3530000000154,"House#234 st# fasail colony, karachi",11/28/1997,SINDH,923047877535,Alive,Karachi
Khurram Shezad,3530000000155,"House#234 st# fasail colony, karachi",11/29/1997,SINDH,923047877535,Alive,Karachi
Khurram Shezad,3530000000156,"House#234 st# fasail colony, karachi",11/30/1997,SINDH,923047877535,Alive,Karachi
Khurram Shezad,3530000000157,"House#234 st# fasail colony, karachi",12/01/1997,SINDH,923047877535,Alive,Karachi
Khurram Shezad,3530000000158,"House#234 st# fasail colony, karachi",12/02/1997,SINDH,923047877535,Alive,Karachi
Khurram Shezad,3530000000159,"House#234 st# fasail colony, karachi",12/03/1997,SINDH,923047877535,Alive,Karachi
Khurram Shezad,3530000000160,"House#234 st# fasail colony, karachi",12/04/1997,SINDH,923047877535,Alive,Karachi
Khurram Shezad,3530000000161,"House#234 st# fasail colony, karachi",12/05/1997,SINDH,923047877535,Alive,Karachi
Khurram Shezad,3530000000162,"House#234 st# fasail colony, karachi",12/06/1997,SINDH,923047877535,Alive,Karachi
Khurram Shezad,3530000000163,"House#234 st# fasail colony, karachi",12/07/1997,SINDH,923047877535,Alive,Karachi
Khurram Shezad,3530000000164,"House#234 st# fasail colony, karachi",12/08/1997,SINDH,923047877535,Alive,Karachi
Khurram Shezad,3530000000165,"House#234 st# fasail colony, karachi",12/09/1997,SINDH,923047877535,Alive,Karachi
Khurram Shezad,3530000000166,"House#234 st# fasail colony, karachi",12/10/1997,SINDH,923047877535,Alive,Karachi
Khurram Shezad,3530000000167,"House#234 st# fasail colony, karachi",12/11/1997,SINDH,923047877535,Alive,Karachi
Khurram Shezad,3530000000168,"House#234 st# fasail colony, karachi",12/12/1997,SINDH,923047877535,Alive,Karachi
Khurram Shezad,3530000000169,"House#234 st# fasail colony, karachi",12/13/1997,SINDH,923047877535,Alive,Karachi
Khurram Shezad,3530000000170,"House#234 st# fasail colony, karachi",12/14/1997,SINDH,923047877535,Alive,Karachi
Khurram Shezad,3530000000171,"House#234 st# fasail colony, karachi",12/15/1997,SINDH,923047877535,Alive,Karachi
Khurram Shezad,3530000000172,"House#234 st# fasail colony, karachi",12/16/1997,SINDH,923047877535,Alive,Karachi
Khurram Shezad,3530000000173,"House#234 st# fasail colony, karachi",12/17/1997,SINDH,923047877535,Alive,Karachi
Khurram Shezad,3530000000174,"House#234 st# fasail colony, karachi",12/18/1997,SINDH,923047877535,Alive,Karachi
Khurram Shezad,3530000000175,"House#234 st# fasail colony, karachi",12/19/1997,SINDH,923047877535,Alive,Karachi
Khurram Shezad,3530000000176,"House#234 st# fasail colony, karachi",12/20/1997,SINDH,923047877535,Alive,Karachi
Khurram Shezad,3530000000177,"House#234 st# fasail colony, karachi",12/21/1997,SINDH,923047877535,Alive,Karachi
Khurram Shezad,3530000000178,"House#234 st# fasail colony, karachi",12/22/1997,SINDH,923047877535,Alive,Karachi
Khurram Shezad,3530000000179,"House#234 st# fasail colony, karachi",12/23/1997,SINDH,923047877535,Alive,Karachi
Khurram Shezad,3530000000180,"House#234 st# fasail colony, karachi",12/24/1997,SINDH,923047877535,Alive,Karachi
Khurram Shezad,3530000000181,"House#234 st# fasail colony, karachi",12/25/1997,SINDH,923047877535,Alive,Karachi
Khurram Shezad,3530000000182,"House#234 st# fasail colony, karachi",12/26/1997,SINDH,923047877535,Alive,Karachi
Khurram Shezad,3530000000183,"House#234 st# fasail colony, karachi",12/27/1997,SINDH,923047877535,Alive,Karachi
Khurram Shezad,3530000000184,"House#234 st# fasail colony, karachi",12/28/1997,SINDH,923047877535,Alive,Karachi
Khurram Shezad,3530000000185,"House#234 st# fasail colony, karachi",12/29/1997,SINDH,923047877535,Alive,Karachi
Khurram Shezad,3530000000186,"House#234 st# fasail colony, karachi",12/30/1997,SINDH,923047877535,Alive,Karachi
Khurram Shezad,3530000000187,"House#234 st# fasail colony, karachi",12/31/1997,SINDH,923047877535,Alive,Karachi
Khurram Shezad,3530000000188,"House#234 st# fasail colony, karachi",01/01/1998,SINDH,923047877535,Alive,Karachi
Khurram Shezad,3530000000189,"House#234 st# fasail colony, karachi",01/02/1998,SINDH,923047877535,Alive,Karachi
Khurram Shezad,3530000000190,"House#234 st# fasail colony, karachi",01/03/1998,SINDH,923047877535,Alive,Karachi
Khurram Shezad,3530000000191,"House#234 st# fasail colony, karachi",01/04/1998,SINDH,923047877535,Alive,Karachi
Khurram Shezad,3530000000192,"House#234 st# fasail colony, karachi",01/05/1998,SINDH,923047877535,Alive,Karachi
Khurram Shezad,3530000000193,"House#234 st# fasail colony, karachi",01/06/1998,SINDH,923047877535,Alive,Karachi
Khurram Shezad,3530000000194,"House#234 st# fasail colony, karachi",01/07/1998,SINDH,923047877535,Alive,Karachi
Khurram Shezad,3530000000195,"House#234 st# fasail colony, karachi",01/08/1998,SINDH,923047877535,Alive,Karachi
Khurram Shezad,3530000000196,"House#234 st# fasail colony, karachi",01/09/1998,SINDH,923047877535,Alive,Karachi
Khurram Shezad,3530000000197,"House#234 st# fasail colony, karachi",01/10/1998,SINDH,923047877535,Alive,Karachi
Khurram Shezad,3530000000198,"House#234 st# fasail colony, karachi",01/11/1998,SINDH,923047877535,Alive,Karachi
Khurram Shezad,3530000000199,"House#234 st# fasail colony, Hydrabad",01/12/1998,SINDH,923047877535,Alive,Hydrabad
Khurram Shezad,3530000000200,"House#234 st# fasail colony, Hydrabad",1/13/1998,SINDH,923047877535,Alive,Hydrabad
Khurram Shezad,3530000000201,"House#234 st# fasail colony, Hydrabad",1/14/1998,SINDH,923047877535,Alive,Hydrabad
Khurram Shezad,3530000000202,"House#234 st# fasail colony, Hydrabad",1/15/1998,SINDH,923047877535,Alive,Hydrabad
Khurram Shezad,3530000000203,"House#234 st# fasail colony, Hydrabad",1/16/1998,SINDH,923047877535,Alive,Hydrabad
Khurram Shezad,3530000000204,"House#234 st# fasail colony, Hydrabad",1/17/1998,SINDH,923047877535,Alive,Hydrabad
Khurram Shezad,3530000000205,"House#234 st# fasail colony, Hydrabad",1/18/1998,SINDH,923047877535,Alive,Hydrabad
Khurram Shezad,3530000000206,"House#234 st# fasail colony, Hydrabad",1/19/1998,SINDH,923047877535,Alive,Hydrabad
Khurram Shezad,3530000000207,"House#234 st# fasail colony, Hydrabad",1/20/1998,SINDH,923047877535,Alive,Hydrabad
Khurram Shezad,3530000000208,"House#234 st# fasail colony, Hydrabad",1/21/1998,SINDH,923047877535,Alive,Hydrabad
Khurram Shezad,3530000000209,"House#234 st# fasail colony, Hydrabad",1/22/1998,SINDH,923047877535,Alive,Hydrabad
Khurram Shezad,3530000000210,"House#234 st# fasail colony, Hydrabad",1/23/1998,SINDH,923047877535,Alive,Hydrabad
Khurram Shezad,3530000000211,"House#234 st# fasail colony, Hydrabad",1/24/1998,SINDH,923047877535,Alive,Hydrabad
Khurram Shezad,3530000000212,"House#234 st# fasail colony, Hydrabad",1/25/1998,SINDH,923047877535,Alive,Hydrabad
Khurram Shezad,3530000000213,"House#234 st# fasail colony, Hydrabad",1/26/1998,SINDH,923047877535,Alive,Hydrabad
Khurram Shezad,3530000000214,"House#234 st# fasail colony, Hydrabad",1/27/1998,SINDH,923047877535,Alive,Hydrabad
Khurram Shezad,3530000000215,"House#234 st# fasail colony, Hydrabad",1/28/1998,SINDH,923047877535,Alive,Hydrabad
Khurram Shezad,3530000000216,"House#234 st# fasail colony, Hydrabad",1/29/1998,SINDH,923047877535,Alive,Hydrabad
Khurram Shezad,3530000000217,"House#234 st# fasail colony, Hydrabad",1/30/1998,SINDH,923047877535,Alive,Hydrabad
Khurram Shezad,3530000000218,"House#234 st# fasail colony, Hydrabad",1/31/1998,SINDH,923047877535,Alive,Hydrabad
Khurram Shezad,3530000000219,"House#234 st# fasail colony, Hydrabad",02/01/1998,SINDH,923047877535,Alive,Hydrabad
Khurram Shezad,3530000000220,"House#234 st# fasail colony, Hydrabad",02/02/1998,SINDH,923047877535,Alive,Hydrabad
Khurram Shezad,3530000000221,"House#234 st# fasail colony, Hydrabad",02/03/1998,SINDH,923047877535,Alive,Hydrabad
Khurram Shezad,3530000000222,"House#234 st# fasail colony, Hydrabad",02/04/1998,SINDH,923047877535,Alive,Hydrabad
Khurram Shezad,3530000000223,"House#234 st# fasail colony, Hydrabad",02/05/1998,SINDH,923047877535,Alive,Hydrabad
Khurram Shezad,3530000000224,"House#234 st# fasail colony, Hydrabad",02/06/1998,SINDH,923047877535,Alive,Hydrabad
Khurram Shezad,3530000000225,"House#234 st# fasail colony, Hydrabad",02/07/1998,SINDH,923047877535,Alive,Hydrabad
Khurram Shezad,3530000000226,"House#234 st# fasail colony, Hydrabad",02/08/1998,SINDH,923047877535,Alive,Hydrabad
Khurram Shezad,3530000000227,"House#234 st# fasail colony, Hydrabad",02/09/1998,SINDH,923047877535,Alive,Hydrabad
Khurram Shezad,3530000000228,"House#234 st# fasail colony, Hydrabad",02/10/1998,SINDH,923047877535,Alive,Hydrabad
Khurram Shezad,3530000000229,"House#234 st# fasail colony, Hydrabad",02/11/1998,SINDH,923047877535,Alive,Hydrabad
Khurram Shezad,3530000000230,"House#234 st# fasail colony, Hydrabad",02/12/1998,SINDH,923047877535,Alive,Hydrabad
Khurram Shezad,3530000000231,"House#234 st# fasail colony, Hydrabad",2/13/1998,SINDH,923047877535,Alive,Hydrabad
Khurram Shezad,3530000000232,"House#234 st# fasail colony, Hydrabad",2/14/1998,SINDH,923047877535,Alive,Hydrabad
Khurram Shezad,3530000000233,"House#234 st# fasail colony, Hydrabad",2/15/1998,SINDH,923047877535,Alive,Hydrabad
Khurram Shezad,3530000000234,"House#234 st# fasail colony, Hydrabad",2/16/1998,SINDH,923047877535,Alive,Hydrabad
Khurram Shezad,3530000000235,"House#234 st# fasail colony, Hydrabad",2/17/1998,SINDH,923047877535,Alive,Hydrabad
Khurram Shezad,3530000000236,"House#234 st# fasail colony, Hydrabad",2/18/1998,SINDH,923047877535,Alive,Hydrabad
Khurram Shezad,3530000000237,"House#234 st# fasail colony, Hydrabad",2/19/1998,SINDH,923047877535,Alive,Hydrabad
Khurram Shezad,3530000000238,"House#234 st# fasail colony, Hydrabad",2/20/1998,SINDH,923047877535,Alive,Hydrabad
Khurram Shezad,3530000000239,"House#234 st# fasail colony, Hydrabad",2/21/1998,SINDH,923047877535,Alive,Hydrabad
Khurram Shezad,3530000000240,"House#234 st# fasail colony, Hydrabad",2/22/1998,SINDH,923047877535,Alive,Hydrabad
Khurram Shezad,3530000000241,"House#234 st# fasail colony, Hydrabad",2/23/1998,SINDH,923047877535,Alive,Hydrabad
Khurram Shezad,3530000000242,"House#234 st# fasail colony, Hydrabad",2/24/1998,SINDH,923047877535,Alive,Hydrabad
Khurram Shezad,3530000000243,"House#234 st# fasail colony, Hydrabad",2/25/1998,SINDH,923047877535,Alive,Hydrabad
Khurram Shezad,3530000000244,"House#234 st# fasail colony, Hydrabad",2/26/1998,SINDH,923047877535,Alive,Hydrabad
Khurram Shezad,3530000000245,"House#234 st# fasail colony, Hydrabad",2/27/1998,SINDH,923047877535,Alive,Hydrabad
Khurram Shezad,3530000000246,"House#234 st# fasail colony, Hydrabad",2/28/1998,SINDH,923047877535,Alive,Hydrabad
Khurram Shezad,3530000000247,"House#234 st# fasail colony, Hydrabad",03/01/1998,SINDH,923047877535,Alive,Hydrabad
Khurram Shezad,3530000000248,"House#234 st# fasail colony, Hydrabad",03/02/1998,SINDH,923047877535,Alive,Hydrabad
Khurram Shezad,3530000000249,"House#234 st# fasail colony, Sukkar",03/03/1998,SINDH,923047877535,Alive,Sukkur
Khurram Shezad,3530000000250,"House#234 st# fasail colony, Sukkar",03/04/1998,SINDH,923047877535,Alive,Sukkur
Khurram Shezad,3530000000251,"House#234 st# fasail colony, Sukkar",03/05/1998,SINDH,923047877535,Alive,Sukkur
Khurram Shezad,3530000000252,"House#234 st# fasail colony, Sukkar",03/06/1998,SINDH,923047877535,Alive,Sukkur
Khurram Shezad,3530000000253,"House#234 st# fasail colony, Sukkar",03/07/1998,SINDH,923047877535,Alive,Sukkur
Khurram Shezad,3530000000254,"House#234 st# fasail colony, Sukkar",03/08/1998,SINDH,923047877535,Alive,Sukkur
Khurram Shezad,3530000000255,"House#234 st# fasail colony, Sukkar",03/09/1998,SINDH,923047877535,Alive,Sukkur
Khurram Shezad,3530000000256,"House#234 st# fasail colony, Sukkar",03/10/1998,SINDH,923047877535,Alive,Sukkur
Khurram Shezad,3530000000257,"House#234 st# fasail colony, Sukkar",03/11/1998,SINDH,923047877535,Alive,Sukkur
Khurram Shezad,3530000000258,"House#234 st# fasail colony, Sukkar",03/12/1998,SINDH,923047877535,Alive,Sukkur
Khurram Shezad,3530000000259,"House#234 st# fasail colony, Sukkar",3/13/1998,SINDH,923047877535,Alive,Sukkur
Khurram Shezad,3530000000260,"House#234 st# fasail colony, Sukkar",3/14/1998,SINDH,923047877535,Alive,Sukkur
Khurram Shezad,3530000000261,"House#234 st# fasail colony, Sukkar",3/15/1998,SINDH,923047877535,Alive,Sukkur
Khurram Shezad,3530000000262,"House#234 st# fasail colony, Sukkar",3/16/1998,SINDH,923047877535,Alive,Sukkur
Khurram Shezad,3530000000263,"House#234 st# fasail colony, Sukkar",3/17/1998,SINDH,923047877535,Alive,Sukkur
Khurram Shezad,3530000000264,"House#234 st# fasail colony, Sukkar",3/18/1998,SINDH,923047877535,Alive,Sukkur
Khurram Shezad,3530000000265,"House#234 st# fasail colony, Sukkar",3/19/1998,SINDH,923047877535,Alive,Sukkur
Khurram Shezad,3530000000266,"House#234 st# fasail colony, Sukkar",3/20/1998,SINDH,923047877535,Alive,Sukkur
Khurram Shezad,3530000000267,"House#234 st# fasail colony, Sukkar",3/21/1998,SINDH,923047877535,Alive,Sukkur
Khurram Shezad,3530000000268,"House#234 st# fasail colony, Sukkar",3/22/1998,SINDH,923047877535,Alive,Sukkur
Khurram Shezad,3530000000269,"House#234 st# fasail colony, Sukkar",3/23/1998,SINDH,923047877535,Alive,Sukkur
Khurram Shezad,3530000000270,"House#234 st# fasail colony, Sukkar",3/24/1998,SINDH,923047877535,Alive,Sukkur
Khurram Shezad,3530000000271,"House#234 st# fasail colony, Sukkar",3/25/1998,SINDH,923047877535,Alive,Sukkur
Khurram Shezad,3530000000272,"House#234 st# fasail colony, Sukkar",3/26/1998,SINDH,923047877535,Alive,Sukkur
Khurram Shezad,3530000000273,"House#234 st# fasail colony, Sukkar",3/27/1998,SINDH,923047877535,Alive,Sukkur
Khurram Shezad,3530000000274,"House#234 st# fasail colony, Sukkar",3/28/1998,SINDH,923047877535,Alive,Sukkur
Khurram Shezad,3530000000275,"House#234 st# fasail colony, Sukkar",3/29/1998,SINDH,923047877535,Alive,Sukkur
Khurram Shezad,3530000000276,"House#234 st# fasail colony, Sukkar",3/30/1998,SINDH,923047877535,Alive,Sukkur
Khurram Shezad,3530000000277,"House#234 st# fasail colony, Sukkar",3/31/1998,SINDH,923047877535,Alive,Sukkur
Khurram Shezad,3530000000278,"House#234 st# fasail colony, Sukkar",04/01/1998,SINDH,923047877535,Alive,Sukkur
Khurram Shezad,3530000000279,"House#234 st# fasail colony, Sukkar",04/02/1998,SINDH,923047877535,Alive,Sukkur
Khurram Shezad,3530000000280,"House#234 st# fasail colony, Sukkar",04/03/1998,SINDH,923047877535,Alive,Sukkur
Khurram Shezad,3530000000281,"House#234 st# fasail colony, Sukkar",04/04/1998,SINDH,923047877535,Alive,Sukkur
Khurram Shezad,3530000000282,"House#234 st# fasail colony, Sukkar",04/05/1998,SINDH,923047877535,Alive,Sukkur
Khurram Shezad,3530000000283,"House#234 st# fasail colony, Sukkar",04/06/1998,SINDH,923047877535,Alive,Sukkur
Khurram Shezad,3530000000284,"House#234 st# fasail colony, Sukkar",04/07/1998,SINDH,923047877535,Alive,Sukkur
Khurram Shezad,3530000000285,"House#234 st# fasail colony, Sukkar",04/08/1998,SINDH,923047877535,Alive,Sukkur
Khurram Shezad,3530000000286,"House#234 st# fasail colony, Sukkar",04/09/1998,SINDH,923047877535,Alive,Sukkur
Khurram Shezad,3530000000287,"House#234 st# fasail colony, Sukkar",04/10/1998,SINDH,923047877535,Alive,Sukkur
Khurram Shezad,3530000000288,"House#234 st# fasail colony, Sukkar",04/11/1998,SINDH,923047877535,Alive,Sukkur
Khurram Shezad,3530000000289,"House#234 st# fasail colony, Sukkar",04/12/1998,SINDH,923047877535,Alive,Sukkur
Khurram Shezad,3530000000290,"House#234 st# fasail colony, Sukkar",4/13/1998,SINDH,923047877535,Alive,Sukkur
Khurram Shezad,3530000000291,"House#234 st# fasail colony, Sukkar",4/14/1998,SINDH,923047877535,Alive,Sukkur
Khurram Shezad,3530000000292,"House#234 st# fasail colony, Sukkar",4/15/1998,SINDH,923047877535,Alive,Sukkur
Khurram Shezad,3530000000293,"House#234 st# fasail colony, Sukkar",4/16/1998,SINDH,923047877535,Alive,Sukkur
Khurram Shezad,3530000000294,"House#234 st# fasail colony, Sukkar",4/17/1998,SINDH,923047877535,Alive,Sukkur
Khurram Shezad,3530000000295,"House#234 st# fasail colony, Sukkar",4/18/1998,SINDH,923047877535,Alive,Sukkur
Khurram Shezad,3530000000296,"House#234 st# fasail colony, Sukkar",4/19/1998,SINDH,923047877535,Alive,Sukkur
Khurram Shezad,3530000000297,"House#234 st# fasail colony, Sukkar",4/20/1998,SINDH,923047877535,Alive,Sukkur
Khurram Shezad,3530000000298,"House#234 st# fasail colony, Sukkar",4/21/1998,SINDH,923047877535,Alive,Sukkur
Khurram Shezad,3530000000299,"House#234 st# fasail colony, Quetta",4/22/1998,Balochistan,923047877535,Alive,Quetta
Khurram Shezad,3530000000300,"House#234 st# fasail colony, Quetta",4/23/1998,Balochistan,923047877535,Alive,Quetta
Khurram Shezad,3530000000301,"House#234 st# fasail colony, Quetta",4/24/1998,Balochistan,923047877535,Alive,Quetta
Khurram Shezad,3530000000302,"House#234 st# fasail colony, Quetta",4/25/1998,Balochistan,923047877535,Alive,Quetta
Khurram Shezad,3530000000303,"House#234 st# fasail colony, Quetta",4/26/1998,Balochistan,923047877535,Alive,Quetta
Khurram Shezad,3530000000304,"House#234 st# fasail colony, Quetta",4/27/1998,Balochistan,923047877535,Alive,Quetta
Khurram Shezad,3530000000305,"House#234 st# fasail colony, Quetta",4/28/1998,Balochistan,923047877535,Alive,Quetta
Khurram Shezad,3530000000306,"House#234 st# fasail colony, Quetta",4/29/1998,Balochistan,923047877535,Alive,Quetta
Khurram Shezad,3530000000307,"House#234 st# fasail colony, Quetta",4/30/1998,Balochistan,923047877535,Alive,Quetta
Khurram Shezad,3530000000308,"House#234 st# fasail colony, Quetta",05/01/1998,Balochistan,923047877535,Alive,Quetta
Khurram Shezad,3530000000309,"House#234 st# fasail colony, Quetta",05/02/1998,Balochistan,923047877535,Alive,Quetta
Khurram Shezad,3530000000310,"House#234 st# fasail colony, Quetta",05/03/1998,Balochistan,923047877535,Alive,Quetta
Habib Ahmad,3530000000311,"House#234 st# fasail colony, Quetta",05/04/1998,Balochistan,923047877535,Alive,Quetta
Habib Ahmad,3530000000312,"House#234 st# fasail colony, Quetta",05/05/1998,Balochistan,923047877535,Alive,Quetta
Habib Ahmad,3530000000313,"House#234 st# fasail colony, Quetta",05/06/1998,Balochistan,923047877535,Alive,Quetta
Habib Ahmad,3530000000314,"House#234 st# fasail colony, Quetta",05/07/1998,Balochistan,923047877535,Alive,Quetta
Habib Ahmad,3530000000315,"House#234 st# fasail colony, Quetta",05/08/1998,Balochistan,923047877535,Alive,Quetta
Habib Ahmad,3530000000316,"House#234 st# fasail colony, Quetta",05/09/1998,Balochistan,923047877535,Alive,Quetta
Habib Ahmad,3530000000317,"House#234 st# fasail colony, Quetta",05/10/1998,Balochistan,923047877535,Alive,Quetta
Habib Ahmad,3530000000318,"House#234 st# fasail colony, Quetta",05/11/1998,Balochistan,923047877535,Alive,Quetta
Habib Ahmad,3530000000319,"House#234 st# fasail colony, Quetta",05/12/1998,Balochistan,923047877535,Alive,Quetta
Habib Ahmad,3530000000320,"House#234 st# fasail colony, Quetta",5/13/1998,Balochistan,923047877535,Alive,Quetta
Habib Ahmad,3530000000321,"House#234 st# fasail colony, Quetta",5/14/1998,Balochistan,923047877535,Alive,Quetta
Habib Ahmad,3530000000322,"House#234 st# fasail colony, Quetta",5/15/1998,Balochistan,923047877535,Alive,Quetta
Habib Ahmad,3530000000323,"House#234 st# fasail colony, Quetta",5/16/1998,Balochistan,923047877535,Alive,Quetta
Habib Ahmad,3530000000324,"House#234 st# fasail colony, Quetta",5/17/1998,Balochistan,923047877535,Alive,Quetta
Habib Ahmad,3530000000325,"House#234 st# fasail colony, Quetta",5/18/1998,Balochistan,923047877535,Alive,Quetta
Habib Ahmad,3530000000326,"House#234 st# fasail colony, Quetta",5/19/1998,Balochistan,923047877535,Alive,Quetta
Habib Ahmad,3530000000327,"House#234 st# fasail colony, Quetta",5/20/1998,Balochistan,923047877535,Alive,Quetta
Habib Ahmad,3530000000328,"House#234 st# fasail colony, Quetta",5/21/1998,Balochistan,923047877535,Alive,Quetta
Habib Ahmad,3530000000329,"House#234 st# fasail colony, Quetta",5/22/1998,Balochistan,923047877535,Alive,Quetta
Habib Ahmad,3530000000330,"House#234 st# fasail colony, Quetta",5/23/1998,Balochistan,923047877535,Alive,Quetta
Habib Ahmad,3530000000331,"House#234 st# fasail colony, Quetta",5/24/1998,Balochistan,923047877535,Alive,Quetta
Habib Ahmad,3530000000332,"House#234 st# fasail colony, Quetta",5/25/1998,Balochistan,923047877535,Alive,Quetta
Habib Ahmad,3530000000333,"House#234 st# fasail colony, Quetta",5/26/1998,Balochistan,923047877535,Alive,Quetta
Habib Ahmad,3530000000334,"House#234 st# fasail colony, Quetta",5/27/1998,Balochistan,923047877535,Alive,Quetta
Habib Ahmad,3530000000335,"House#234 st# fasail colony, Quetta",5/28/1998,Balochistan,923047877535,Alive,Quetta
Habib Ahmad,3530000000336,"House#234 st# fasail colony, Quetta",5/29/1998,Balochistan,923047877535,Alive,Quetta
Habib Ahmad,3530000000337,"House#234 st# fasail colony, Quetta",5/30/1998,Balochistan,923047877535,Alive,Quetta
Habib Ahmad,3530000000338,"House#234 st# fasail colony, Quetta",5/31/1998,Balochistan,923047877535,Alive,Quetta
Habib Ahmad,3530000000339,"House#234 st# fasail colony, Quetta",06/01/1998,Balochistan,923047877535,Alive,Quetta
Habib Ahmad,3530000000340,"House#234 st# fasail colony, Quetta",06/02/1998,Balochistan,923047877535,Alive,Quetta
Habib Ahmad,3530000000341,"House#234 st# fasail colony, Quetta",06/03/1998,Balochistan,923047877535,Alive,Quetta
Habib Ahmad,3530000000342,"House#234 st# fasail colony, Quetta",06/04/1998,Balochistan,923047877535,Alive,Quetta
Habib Ahmad,3530000000343,"House#234 st# fasail colony, Quetta",06/05/1998,Balochistan,923047877535,Alive,Quetta
Habib Ahmad,3530000000344,"House#234 st# fasail colony, Quetta",06/06/1998,Balochistan,923047877535,Alive,Quetta
Habib Ahmad,3530000000345,"House#234 st# fasail colony, Quetta",06/07/1998,Balochistan,923047877535,Alive,Quetta
Habib Ahmad,3530000000346,"House#234 st# fasail colony, Quetta",06/08/1998,Balochistan,923047877535,Alive,Quetta
Habib Ahmad,3530000000347,"House#234 st# fasail colony, Quetta",06/09/1998,Balochistan,923047877535,Alive,Quetta
Habib Ahmad,3530000000348,"House#234 st# fasail colony, Quetta",06/10/1998,Balochistan,923047877535,Alive,Quetta
Habib Ahmad,3530000000349,"House#234 st# fasail colony, Turbat",06/11/1998,Balochistan,923047877535,Alive,Turbat
Habib Ahmad,3530000000350,"House#234 st# fasail colony, Turbat",06/12/1998,Balochistan,923047877535,Alive,Turbat
Habib Ahmad,3530000000351,"House#234 st# fasail colony, Turbat",6/13/1998,Balochistan,923047877535,Alive,Turbat
Habib Ahmad,3530000000352,"House#234 st# fasail colony, Turbat",6/14/1998,Balochistan,923047877535,Alive,Turbat
Habib Ahmad,3530000000353,"House#234 st# fasail colony, Turbat",6/15/1998,Balochistan,923047877535,Alive,Turbat
Habib Ahmad,3530000000354,"House#234 st# fasail colony, Turbat",6/16/1998,Balochistan,923047877535,Alive,Turbat
Habib Ahmad,3530000000355,"House#234 st# fasail colony, Turbat",6/17/1998,Balochistan,923047877535,Alive,Turbat
Habib Ahmad,3530000000356,"House#234 st# fasail colony, Turbat",6/18/1998,Balochistan,923047877535,Alive,Turbat
Habib Ahmad,3530000000357,"House#234 st# fasail colony, Turbat",6/19/1998,Balochistan,923047877535,Alive,Turbat
Habib Ahmad,3530000000358,"House#234 st# fasail colony, Turbat",6/20/1998,Balochistan,923047877535,Alive,Turbat
Habib Ahmad,3530000000359,"House#234 st# fasail colony, Turbat",6/21/1998,Balochistan,923047877535,Alive,Turbat
Habib Ahmad,3530000000360,"House#234 st# fasail colony, Turbat",6/22/1998,Balochistan,923047877535,Alive,Turbat
Habib Ahmad,3530000000361,"House#234 st# fasail colony, Turbat",6/23/1998,Balochistan,923047877535,Alive,Turbat
Habib Ahmad,3530000000362,"House#234 st# fasail colony, Turbat",6/24/1998,Balochistan,923047877535,Alive,Turbat
Habib Ahmad,3530000000363,"House#234 st# fasail colony, Turbat",6/25/1998,Balochistan,923047877535,Alive,Turbat
Habib Ahmad,3530000000364,"House#234 st# fasail colony, Turbat",6/26/1998,Balochistan,923047877535,Alive,Turbat
Habib Ahmad,3530000000365,"House#234 st# fasail colony, Turbat",6/27/1998,Balochistan,923047877535,Alive,Turbat
Habib Ahmad,3530000000366,"House#234 st# fasail colony, Turbat",6/28/1998,Balochistan,923047877535,Alive,Turbat
Habib Ahmad,3530000000367,"House#234 st# fasail colony, Turbat",6/29/1998,Balochistan,923047877535,Alive,Turbat
Habib Ahmad,3530000000368,"House#234 st# fasail colony, Turbat",6/30/1998,Balochistan,923047877535,Alive,Turbat
Habib Ahmad,3530000000369,"House#234 st# fasail colony, Turbat",07/01/1998,Balochistan,923047877535,Alive,Turbat
Habib Ahmad,3530000000370,"House#234 st# fasail colony, Turbat",07/02/1998,Balochistan,923047877535,Alive,Turbat
Habib Ahmad,3530000000371,"House#234 st# fasail colony, Turbat",07/03/1998,Balochistan,923047877535,Alive,Turbat
Habib Ahmad,3530000000372,"House#234 st# fasail colony, Turbat",07/04/1998,Balochistan,923047877535,Alive,Turbat
Habib Ahmad,3530000000373,"House#234 st# fasail colony, Turbat",07/05/1998,Balochistan,923047877535,Alive,Turbat
Habib Ahmad,3530000000374,"House#234 st# fasail colony, Turbat",07/06/1998,Balochistan,923047877535,Alive,Turbat
Habib Ahmad,3530000000375,"House#234 st# fasail colony, Turbat",07/07/1998,Balochistan,923047877535,Alive,Turbat
Habib Ahmad,3530000000376,"House#234 st# fasail colony, Turbat",07/08/1998,Balochistan,923047877535,Alive,Turbat
Habib Ahmad,3530000000377,"House#234 st# fasail colony, Turbat",07/09/1998,Balochistan,923047877535,Alive,Turbat
Habib Ahmad,3530000000378,"House#234 st# fasail colony, Turbat",07/10/1998,Balochistan,923047877535,Alive,Turbat
Habib Ahmad,3530000000379,"House#234 st# fasail colony, Turbat",07/11/1998,Balochistan,923047877535,Alive,Turbat
Habib Ahmad,3530000000380,"House#234 st# fasail colony, Turbat",07/12/1998,Balochistan,923047877535,Alive,Turbat
Habib Ahmad,3530000000381,"House#234 st# fasail colony, Turbat",7/13/1998,Balochistan,923047877535,Alive,Turbat
Habib Ahmad,3530000000382,"House#234 st# fasail colony, Turbat",7/14/1998,Balochistan,923047877535,Alive,Turbat
Habib Ahmad,3530000000383,"House#234 st# fasail colony, Turbat",7/15/1998,Balochistan,923047877535,Alive,Turbat
Habib Ahmad,3530000000384,"House#234 st# fasail colony, Turbat",7/16/1998,Balochistan,923047877535,Alive,Turbat
Habib Ahmad,3530000000385,"House#234 st# fasail colony, Turbat",7/17/1998,Balochistan,923047877535,Alive,Turbat
Habib Ahmad,3530000000386,"House#234 st# fasail colony, Turbat",7/18/1998,Balochistan,923047877535,Alive,Turbat
Habib Ahmad,3530000000387,"House#234 st# fasail colony, Turbat",7/19/1998,Balochistan,923047877535,Alive,Turbat
Habib Ahmad,3530000000388,"House#234 st# fasail colony, Turbat",7/20/1998,Balochistan,923047877535,Alive,Turbat
Habib Ahmad,3530000000389,"House#234 st# fasail colony, Turbat",7/21/1998,Balochistan,923047877535,Alive,Turbat
Habib Ahmad,3530000000390,"House#234 st# fasail colony, Turbat",7/22/1998,Balochistan,923047877535,Alive,Turbat
Habib Ahmad,3530000000391,"House#234 st# fasail colony, Turbat",7/23/1998,Balochistan,923047877535,Alive,Turbat
Habib Ahmad,3530000000392,"House#234 st# fasail colony, Turbat",7/24/1998,Balochistan,923047877535,Alive,Turbat
Habib Ahmad,3530000000393,"House#234 st# fasail colony, Turbat",7/25/1998,Balochistan,923047877535,Alive,Turbat
Habib Ahmad,3530000000394,"House#234 st# fasail colony, Turbat",7/26/1998,Balochistan,923047877535,Alive,Turbat
Habib Ahmad,3530000000395,"House#234 st# fasail colony, Turbat",7/27/1998,Balochistan,923047877535,Alive,Turbat
Habib Ahmad,3530000000396,"House#234 st# fasail colony, Turbat",7/28/1998,Balochistan,923047877535,Alive,Turbat
Habib Ahmad,3530000000397,"House#234 st# fasail colony, Turbat",7/29/1998,Balochistan,923047877535,Alive,Turbat
Habib Ahmad,3530000000398,"House#234 st# fasail colony, Turbat",7/30/1998,Balochistan,923047877535,Alive,Turbat
Habib Ahmad,3530000000399,"House#234 st# fasail colony, Khudzar",7/31/1998,Balochistan,923047877535,Alive,Khuzdar
Habib Ahmad,3530000000400,"House#234 st# fasail colony, Khudzar",08/01/1998,Balochistan,923047877535,Alive,Khuzdar
Habib Ahmad,3530000000401,"House#234 st# fasail colony, Khudzar",08/02/1998,Balochistan,923047877535,Alive,Khuzdar
Habib Ahmad,3530000000402,"House#234 st# fasail colony, Khudzar",08/03/1998,Balochistan,923047877535,Alive,Khuzdar
Habib Ahmad,3530000000403,"House#234 st# fasail colony, Khudzar",08/04/1998,Balochistan,923047877535,Alive,Khuzdar
Habib Ahmad,3530000000404,"House#234 st# fasail colony, Khudzar",08/05/1998,Balochistan,923047877535,Alive,Khuzdar
Habib Ahmad,3530000000405,"House#234 st# fasail colony, Khudzar",08/06/1998,Balochistan,923047877535,Alive,Khuzdar
Murtaza Hameed,3530000000406,"House#234 st# fasail colony, Khudzar",08/07/1998,Balochistan,923047877535,Alive,Khuzdar
Murtaza Hameed,3530000000407,"House#234 st# fasail colony, Khudzar",08/08/1998,Balochistan,923047877535,Alive,Khuzdar
Murtaza Hameed,3530000000408,"House#234 st# fasail colony, Khudzar",08/09/1998,Balochistan,923047877535,Alive,Khuzdar
Murtaza Hameed,3530000000409,"House#234 st# fasail colony, Khudzar",08/10/1998,Balochistan,923047877535,Alive,Khuzdar
Murtaza Hameed,3530000000410,"House#234 st# fasail colony, Khudzar",08/11/1998,Balochistan,923047877535,Alive,Khuzdar
Murtaza Hameed,3530000000411,"House#234 st# fasail colony, Khudzar",08/12/1998,Balochistan,923047877535,Alive,Khuzdar
Murtaza Hameed,3530000000412,"House#234 st# fasail colony, Khudzar",8/13/1998,Balochistan,923047877535,Alive,Khuzdar
Murtaza Hameed,3530000000413,"House#234 st# fasail colony, Khudzar",8/14/1998,Balochistan,923047877535,Alive,Khuzdar
Murtaza Hameed,3530000000414,"House#234 st# fasail colony, Khudzar",8/15/1998,Balochistan,923047877535,Alive,Khuzdar
Murtaza Hameed,3530000000415,"House#234 st# fasail colony, Khudzar",8/16/1998,Balochistan,923047877535,Alive,Khuzdar
Murtaza Hameed,3530000000416,"House#234 st# fasail colony, Khudzar",8/17/1998,Balochistan,923047877535,Alive,Khuzdar
Murtaza Hameed,3530000000417,"House#234 st# fasail colony, Khudzar",8/18/1998,Balochistan,923047877535,Alive,Khuzdar
Murtaza Hameed,3530000000418,"House#234 st# fasail colony, Khudzar",8/19/1998,Balochistan,923047877535,Alive,Khuzdar
Murtaza Hameed,3530000000419,"House#234 st# fasail colony, Khudzar",8/20/1998,Balochistan,923047877535,Alive,Khuzdar
Murtaza Hameed,3530000000420,"House#234 st# fasail colony, Khudzar",8/21/1998,Balochistan,923047877535,Alive,Khuzdar
Murtaza Hameed,3530000000421,"House#234 st# fasail colony, Khudzar",8/22/1998,Balochistan,923047877535,Alive,Khuzdar
Murtaza Hameed,3530000000422,"House#234 st# fasail colony, Khudzar",8/23/1998,Balochistan,923047877535,Alive,Khuzdar
Murtaza Hameed,3530000000423,"House#234 st# fasail colony, Khudzar",8/24/1998,Balochistan,923047877535,Alive,Khuzdar
Murtaza Hameed,3530000000424,"House#234 st# fasail colony, Khudzar",8/25/1998,Balochistan,923047877535,Alive,Khuzdar
Murtaza Hameed,3530000000425,"House#234 st# fasail colony, Khudzar",8/26/1998,Balochistan,923047877535,Alive,Khuzdar
Murtaza Hameed,3530000000426,"House#234 st# fasail colony, Khudzar",8/27/1998,Balochistan,923047877535,Alive,Khuzdar
Murtaza Hameed,3530000000427,"House#234 st# fasail colony, Khudzar",8/28/1998,Balochistan,923047877535,Alive,Khuzdar
Murtaza Hameed,3530000000428,"House#234 st# fasail colony, Khudzar",8/29/1998,Balochistan,923047877535,Alive,Khuzdar
Murtaza Hameed,3530000000429,"House#234 st# fasail colony, Khudzar",8/30/1998,Balochistan,923047877535,Alive,Khuzdar
Murtaza Hameed,3530000000430,"House#234 st# fasail colony, Khudzar",8/31/1998,Balochistan,923047877535,Alive,Khuzdar
Murtaza Hameed,3530000000431,"House#234 st# fasail colony, Khudzar",09/01/1998,Balochistan,923047877535,Alive,Khuzdar
Murtaza Hameed,3530000000432,"House#234 st# fasail colony, Khudzar",09/02/1998,Balochistan,923047877535,Alive,Khuzdar
Murtaza Hameed,3530000000433,"House#234 st# fasail colony, Khudzar",09/03/1998,Balochistan,923047877535,Alive,Khuzdar
Murtaza Hameed,3530000000434,"House#234 st# fasail colony, Khudzar",09/04/1998,Balochistan,923047877535,Alive,Khuzdar
Murtaza Hameed,3530000000435,"House#234 st# fasail colony, Khudzar",09/05/1998,Balochistan,923047877535,Alive,Khuzdar
Murtaza Hameed,3530000000436,"House#234 st# fasail colony, Khudzar",09/06/1998,Balochistan,923047877535,Alive,Khuzdar
Khalid Mahmood,3530000000437,"House#234 st# fasail colony, Khudzar",09/07/1998,Balochistan,923047877535,Alive,Khuzdar
Khalid Mahmood,3530000000438,"House#234 st# fasail colony, Khudzar",09/08/1998,Balochistan,923047877535,Alive,Khuzdar
Khalid Mahmood,3530000000439,"House#234 st# fasail colony, Khudzar",09/09/1998,Balochistan,923047877535,Alive,Khuzdar
Khalid Mahmood,3530000000440,"House#234 st# fasail colony, Khudzar",09/10/1998,Balochistan,923047877535,Alive,Khuzdar
Khalid Mahmood,3530000000441,"House#234 st# fasail colony, Khudzar",09/11/1998,Balochistan,923047877535,Alive,Khuzdar
Khalid Mahmood,3530000000442,"House#234 st# fasail colony, Khudzar",09/12/1998,Balochistan,923047877535,Alive,Khuzdar
Khalid Mahmood,3530000000443,"House#234 st# fasail colony, Khudzar",9/13/1998,Balochistan,923047877535,Alive,Khuzdar
Khalid Mahmood,3530000000444,"House#234 st# fasail colony, Khudzar",9/14/1998,Balochistan,923047877535,Alive,Khuzdar
Khalid Mahmood,3530000000445,"House#234 st# fasail colony, Khudzar",9/15/1998,Balochistan,923047877535,Alive,Khuzdar
Khalid Mahmood,3530000000446,"House#234 st# fasail colony, Khudzar",9/16/1998,Balochistan,923047877535,Alive,Khuzdar
Khalid Mahmood,3530000000447,"House#234 st# fasail colony, Khudzar",9/17/1998,Balochistan,923047877535,Alive,Khuzdar
Khalid Mahmood,3530000000448,"House#234 st# fasail colony, Khudzar",9/18/1998,Balochistan,923047877535,Alive,Khuzdar
Khalid Mahmood,3530000000449,"House#234 st# fasail colony, Abbottabad",9/19/1998,Khyber Pakhtunkhwa ,923047877535,Alive,Abbottabad
Khalid Mahmood,3530000000450,"House#234 st# fasail colony, Abbottabad",9/20/1998,Khyber Pakhtunkhwa ,923047877535,Alive,Abbottabad
Khalid Mahmood,3530000000451,"House#234 st# fasail colony, Abbottabad",9/21/1998,Khyber Pakhtunkhwa ,923047877535,Alive,Abbottabad
Khalid Mahmood,3530000000452,"House#234 st# fasail colony, Abbottabad",9/22/1998,Khyber Pakhtunkhwa ,923047877535,Alive,Abbottabad
Khalid Mahmood,3530000000453,"House#234 st# fasail colony, Abbottabad",9/23/1998,Khyber Pakhtunkhwa ,923047877535,Alive,Abbottabad
Khalid Mahmood,3530000000454,"House#234 st# fasail colony, Abbottabad",9/24/1998,Khyber Pakhtunkhwa ,923047877535,Alive,Abbottabad
Khalid Mahmood,3530000000455,"House#234 st# fasail colony, Abbottabad",9/25/1998,Khyber Pakhtunkhwa ,923047877535,Alive,Abbottabad
Khalid Mahmood,3530000000456,"House#234 st# fasail colony, Abbottabad",9/26/1998,Khyber Pakhtunkhwa ,923047877535,Alive,Abbottabad
Khalid Mahmood,3530000000457,"House#234 st# fasail colony, Abbottabad",9/27/1998,Khyber Pakhtunkhwa ,923047877535,Alive,Abbottabad
Khalid Mahmood,3530000000458,"House#234 st# fasail colony, Abbottabad",9/28/1998,Khyber Pakhtunkhwa ,923047877535,Alive,Abbottabad
Khalid Mahmood,3530000000459,"House#234 st# fasail colony, Abbottabad",9/29/1998,Khyber Pakhtunkhwa ,923047877535,Alive,Abbottabad
Khalid Mahmood,3530000000460,"House#234 st# fasail colony, Abbottabad",9/30/1998,Khyber Pakhtunkhwa ,923047877535,Alive,Abbottabad
Khalid Mahmood,3530000000461,"House#234 st# fasail colony, Abbottabad",10/01/1998,Khyber Pakhtunkhwa ,923047877535,Alive,Abbottabad
Khalid Mahmood,3530000000462,"House#234 st# fasail colony, Abbottabad",10/02/1998,Khyber Pakhtunkhwa ,923047877535,Alive,Abbottabad
Khalid Mahmood,3530000000463,"House#234 st# fasail colony, Abbottabad",10/03/1998,Khyber Pakhtunkhwa ,923047877535,Alive,Abbottabad
Khalid Mahmood,3530000000464,"House#234 st# fasail colony, Abbottabad",10/04/1998,Khyber Pakhtunkhwa ,923047877535,Alive,Abbottabad
Khalid Mahmood,3530000000465,"House#234 st# fasail colony, Abbottabad",10/05/1998,Khyber Pakhtunkhwa ,923047877535,Alive,Abbottabad
Khalid Mahmood,3530000000466,"House#234 st# fasail colony, Abbottabad",10/06/1998,Khyber Pakhtunkhwa ,923047877535,Alive,Abbottabad
Khalid Mahmood,3530000000467,"House#234 st# fasail colony, Abbottabad",10/07/1998,Khyber Pakhtunkhwa ,923047877535,Alive,Abbottabad
Khalid Mahmood,3530000000468,"House#234 st# fasail colony, Abbottabad",10/08/1998,Khyber Pakhtunkhwa ,923047877535,Alive,Abbottabad
Khalid Mahmood,3530000000469,"House#234 st# fasail colony, Abbottabad",10/09/1998,Khyber Pakhtunkhwa ,923047877535,Alive,Abbottabad
Khalid Mahmood,3530000000470,"House#234 st# fasail colony, Abbottabad",10/10/1998,Khyber Pakhtunkhwa ,923047877535,Alive,Abbottabad
Khalid Mahmood,3530000000471,"House#234 st# fasail colony, Abbottabad",10/11/1998,Khyber Pakhtunkhwa ,923047877535,Alive,Abbottabad
Khalid Mahmood,3530000000472,"House#234 st# fasail colony, Abbottabad",10/12/1998,Khyber Pakhtunkhwa ,923047877535,Alive,Abbottabad
Khalid Mahmood,3530000000473,"House#234 st# fasail colony, Abbottabad",10/13/1998,Khyber Pakhtunkhwa ,923047877535,Alive,Abbottabad
Khalid Mahmood,3530000000474,"House#234 st# fasail colony, Abbottabad",10/14/1998,Khyber Pakhtunkhwa ,923047877535,Alive,Abbottabad
Khalid Mahmood,3530000000475,"House#234 st# fasail colony, Abbottabad",10/15/1998,Khyber Pakhtunkhwa ,923047877535,Alive,Abbottabad
Khalid Mahmood,3530000000476,"House#234 st# fasail colony, Abbottabad",10/16/1998,Khyber Pakhtunkhwa ,923047877535,Alive,Abbottabad
Khalid Mahmood,3530000000477,"House#234 st# fasail colony, Abbottabad",10/17/1998,Khyber Pakhtunkhwa ,923047877535,Alive,Abbottabad
Khalid Mahmood,3530000000478,"House#234 st# fasail colony, Abbottabad",10/18/1998,Khyber Pakhtunkhwa ,923047877535,Alive,Abbottabad
Khalid Mahmood,3530000000479,"House#234 st# fasail colony, Abbottabad",10/19/1998,Khyber Pakhtunkhwa ,923047877535,Alive,Abbottabad
Khalid Mahmood,3530000000480,"House#234 st# fasail colony, Abbottabad",10/20/1998,Khyber Pakhtunkhwa ,923047877535,Alive,Abbottabad
Khalid Mahmood,3530000000481,"House#234 st# fasail colony, Abbottabad",10/21/1998,Khyber Pakhtunkhwa ,923047877535,Alive,Abbottabad
Khalid Mahmood,3530000000482,"House#234 st# fasail colony, Abbottabad",10/22/1998,Khyber Pakhtunkhwa ,923047877535,Alive,Abbottabad
Khalid Mahmood,3530000000483,"House#234 st# fasail colony, Abbottabad",10/23/1998,Khyber Pakhtunkhwa ,923047877535,Alive,Abbottabad
Khalid Mahmood,3530000000484,"House#234 st# fasail colony, Abbottabad",10/24/1998,Khyber Pakhtunkhwa ,923047877535,Alive,Abbottabad
Khalid Mahmood,3530000000485,"House#234 st# fasail colony, Abbottabad",10/25/1998,Khyber Pakhtunkhwa ,923047877535,Alive,Abbottabad
Khalid Mahmood,3530000000486,"House#234 st# fasail colony, Abbottabad",10/26/1998,Khyber Pakhtunkhwa ,923047877535,Alive,Abbottabad
Khalid Mahmood,3530000000487,"House#234 st# fasail colony, Abbottabad",10/27/1998,Khyber Pakhtunkhwa ,923047877535,Alive,Abbottabad
Khalid Mahmood,3530000000488,"House#234 st# fasail colony, Abbottabad",10/28/1998,Khyber Pakhtunkhwa ,923047877535,Alive,Abbottabad
Khalid Mahmood,3530000000489,"House#234 st# fasail colony, Abbottabad",10/29/1998,Khyber Pakhtunkhwa ,923047877535,Alive,Abbottabad
Khalid Mahmood,3530000000490,"House#234 st# fasail colony, Abbottabad",10/30/1998,Khyber Pakhtunkhwa ,923047877535,Alive,Abbottabad
Khalid Mahmood,3530000000491,"House#234 st# fasail colony, Abbottabad",10/31/1998,Khyber Pakhtunkhwa ,923047877535,Alive,Abbottabad
Khalid Mahmood,3530000000492,"House#234 st# fasail colony, Abbottabad",11/01/1998,Khyber Pakhtunkhwa ,923047877535,Alive,Abbottabad
Khalid Mahmood,3530000000493,"House#234 st# fasail colony, Abbottabad",11/02/1998,Khyber Pakhtunkhwa ,923047877535,Alive,Abbottabad
Khalid Mahmood,3530000000494,"House#234 st# fasail colony, Abbottabad",11/03/1998,Khyber Pakhtunkhwa ,923047877535,Alive,Abbottabad
Khalid Mahmood,3530000000495,"House#234 st# fasail colony, Abbottabad",11/04/1998,Khyber Pakhtunkhwa ,923047877535,Alive,Abbottabad
Khalid Mahmood,3530000000496,"House#234 st# fasail colony, Abbottabad",11/05/1998,Khyber Pakhtunkhwa ,923047877535,Alive,Abbottabad
Khalid Mahmood,3530000000497,"House#234 st# fasail colony, Abbottabad",11/06/1998,Khyber Pakhtunkhwa ,923047877535,Alive,Abbottabad
Khalid Mahmood,3530000000498,"House#234 st# fasail colony, Abbottabad",11/07/1998,Khyber Pakhtunkhwa ,923047877535,Alive,Abbottabad
Khalid Mahmood,3530000000499,"House#234 st# fasail colony, Ayubia",11/08/1998,Khyber Pakhtunkhwa ,923047877535,Alive,Ayubia
Khalid Mahmood,3530000000500,"House#234 st# fasail colony, Ayubia",11/09/1998,Khyber Pakhtunkhwa ,923047877535,Alive,Ayubia
Khalid Mahmood,3530000000501,"House#234 st# fasail colony, Ayubia",11/10/1998,Khyber Pakhtunkhwa ,923047877535,Alive,Ayubia
Khalid Mahmood,3530000000502,"House#234 st# fasail colony, Ayubia",11/11/1998,Khyber Pakhtunkhwa ,923047877535,Alive,Ayubia
Khalid Mahmood,3530000000503,"House#234 st# fasail colony, Ayubia",11/12/1998,Khyber Pakhtunkhwa ,923047877535,Alive,Ayubia
Khalid Mahmood,3530000000504,"House#234 st# fasail colony, Ayubia",11/13/1998,Khyber Pakhtunkhwa ,923047877535,Alive,Ayubia
Khalid Mahmood,3530000000505,"House#234 st# fasail colony, Ayubia",11/14/1998,Khyber Pakhtunkhwa ,923047877535,Alive,Ayubia
Khalid Mahmood,3530000000506,"House#234 st# fasail colony, Ayubia",11/15/1998,Khyber Pakhtunkhwa ,923047877535,Alive,Ayubia
Khalid Mahmood,3530000000507,"House#234 st# fasail colony, Ayubia",11/16/1998,Khyber Pakhtunkhwa ,923047877535,Alive,Ayubia
Khalid Mahmood,3530000000508,"House#234 st# fasail colony, Ayubia",11/17/1998,Khyber Pakhtunkhwa ,923047877535,Alive,Ayubia
Khalid Mahmood,3530000000509,"House#234 st# fasail colony, Ayubia",11/18/1998,Khyber Pakhtunkhwa ,923047877535,Alive,Ayubia
Khalid Mahmood,3530000000510,"House#234 st# fasail colony, Ayubia",11/19/1998,Khyber Pakhtunkhwa ,923047877535,Alive,Ayubia
Khalid Mahmood,3530000000511,"House#234 st# fasail colony, Ayubia",11/20/1998,Khyber Pakhtunkhwa ,923047877535,Alive,Ayubia
Khalid Mahmood,3530000000512,"House#234 st# fasail colony, Ayubia",11/21/1998,Khyber Pakhtunkhwa ,923047877535,Alive,Ayubia
Khalid Mahmood,3530000000513,"House#234 st# fasail colony, Ayubia",11/22/1998,Khyber Pakhtunkhwa ,923047877535,Alive,Ayubia
Khalid Mahmood,3530000000514,"House#234 st# fasail colony, Ayubia",11/23/1998,Khyber Pakhtunkhwa ,923047877535,Alive,Ayubia
Khalid Mahmood,3530000000515,"House#234 st# fasail colony, Ayubia",11/24/1998,Khyber Pakhtunkhwa ,923047877535,Alive,Ayubia
Khalid Mahmood,3530000000516,"House#234 st# fasail colony, Ayubia",11/25/1998,Khyber Pakhtunkhwa ,923047877535,Alive,Ayubia
Khalid Mahmood,3530000000517,"House#234 st# fasail colony, Ayubia",11/26/1998,Khyber Pakhtunkhwa ,923047877535,Alive,Ayubia
Khalid Mahmood,3530000000518,"House#234 st# fasail colony, Ayubia",11/27/1998,Khyber Pakhtunkhwa ,923047877535,Alive,Ayubia
Khalid Mahmood,3530000000519,"House#234 st# fasail colony, Ayubia",11/28/1998,Khyber Pakhtunkhwa ,923047877535,Alive,Ayubia
Khalid Mahmood,3530000000520,"House#234 st# fasail colony, Ayubia",11/29/1998,Khyber Pakhtunkhwa ,923047877535,Alive,Ayubia
Khalid Mahmood,3530000000521,"House#234 st# fasail colony, Ayubia",11/30/1998,Khyber Pakhtunkhwa ,923047877535,Alive,Ayubia
Khalid Mahmood,3530000000522,"House#234 st# fasail colony, Ayubia",12/01/1998,Khyber Pakhtunkhwa ,923047877535,Alive,Ayubia
Khalid Mahmood,3530000000523,"House#234 st# fasail colony, Ayubia",12/02/1998,Khyber Pakhtunkhwa ,923047877535,Alive,Ayubia
Khalid Mahmood,3530000000524,"House#234 st# fasail colony, Ayubia",12/03/1998,Khyber Pakhtunkhwa ,923047877535,Alive,Ayubia
Khalid Mahmood,3530000000525,"House#234 st# fasail colony, Ayubia",12/04/1998,Khyber Pakhtunkhwa ,923047877535,Alive,Ayubia
Khalid Mahmood,3530000000526,"House#234 st# fasail colony, Ayubia",12/05/1998,Khyber Pakhtunkhwa ,923047877535,Alive,Ayubia
Khalid Mahmood,3530000000527,"House#234 st# fasail colony, Ayubia",12/06/1998,Khyber Pakhtunkhwa ,923047877535,Alive,Ayubia
Khalid Mahmood,3530000000528,"House#234 st# fasail colony, Ayubia",12/07/1998,Khyber Pakhtunkhwa ,923047877535,Alive,Ayubia
Khalid Mahmood,3530000000529,"House#234 st# fasail colony, Ayubia",12/08/1998,Khyber Pakhtunkhwa ,923047877535,Alive,Ayubia
Khalid Mahmood,3530000000530,"House#234 st# fasail colony, Ayubia",12/09/1998,Khyber Pakhtunkhwa ,923047877535,Alive,Ayubia
Khalid Mahmood,3530000000531,"House#234 st# fasail colony, Ayubia",12/10/1998,Khyber Pakhtunkhwa ,923047877535,Alive,Ayubia
Khalid Mahmood,3530000000532,"House#234 st# fasail colony, Ayubia",12/11/1998,Khyber Pakhtunkhwa ,923047877535,Alive,Ayubia
Khalid Mahmood,3530000000533,"House#234 st# fasail colony, Ayubia",12/12/1998,Khyber Pakhtunkhwa ,923047877535,Alive,Ayubia
Khalid Mahmood,3530000000534,"House#234 st# fasail colony, Ayubia",12/13/1998,Khyber Pakhtunkhwa ,923047877535,Alive,Ayubia
Khalid Mahmood,3530000000535,"House#234 st# fasail colony, Ayubia",12/14/1998,Khyber Pakhtunkhwa ,923047877535,Alive,Ayubia
Khalid Mahmood,3530000000536,"House#234 st# fasail colony, Ayubia",12/15/1998,Khyber Pakhtunkhwa ,923047877535,Alive,Ayubia
Khalid Mahmood,3530000000537,"House#234 st# fasail colony, Ayubia",12/16/1998,Khyber Pakhtunkhwa ,923047877535,Alive,Ayubia
Khalid Mahmood,3530000000538,"House#234 st# fasail colony, Ayubia",12/17/1998,Khyber Pakhtunkhwa ,923047877535,Alive,Ayubia
Khalid Mahmood,3530000000539,"House#234 st# fasail colony, Ayubia",12/18/1998,Khyber Pakhtunkhwa ,923047877535,Alive,Ayubia
Khalid Mahmood,3530000000540,"House#234 st# fasail colony, Ayubia",12/19/1998,Khyber Pakhtunkhwa ,923047877535,Alive,Ayubia
Khalid Mahmood,3530000000541,"House#234 st# fasail colony, Ayubia",12/20/1998,Khyber Pakhtunkhwa ,923047877535,Alive,Ayubia
Khalid Mahmood,3530000000542,"House#234 st# fasail colony, Ayubia",12/21/1998,Khyber Pakhtunkhwa ,923047877535,Alive,Ayubia
Khalid Mahmood,3530000000543,"House#234 st# fasail colony, Ayubia",12/22/1998,Khyber Pakhtunkhwa ,923047877535,Alive,Ayubia
Khalid Mahmood,3530000000544,"House#234 st# fasail colony, Ayubia",12/23/1998,Khyber Pakhtunkhwa ,923047877535,Alive,Ayubia
Khalid Mahmood,3530000000545,"House#234 st# fasail colony, Ayubia",12/24/1998,Khyber Pakhtunkhwa ,923047877535,Alive,Ayubia
Khalid Mahmood,3530000000546,"House#234 st# fasail colony, Ayubia",12/25/1998,Khyber Pakhtunkhwa ,923047877535,Alive,Ayubia
Khalid Mahmood,3530000000547,"House#234 st# fasail colony, Ayubia",12/26/1998,Khyber Pakhtunkhwa ,923047877535,Alive,Ayubia
Khalid Mahmood,3530000000548,"House#234 st# fasail colony, Ayubia",12/27/1998,Khyber Pakhtunkhwa ,923047877535,Alive,Ayubia
Khalid Mahmood,3530000000549,"House#234 st# fasail colony, Kohat",12/28/1998,Khyber Pakhtunkhwa ,923047877535,Alive,Kohat
Khalid Mahmood,3530000000550,"House#234 st# fasail colony, Kohat",12/29/1998,Khyber Pakhtunkhwa ,923047877535,Alive,Kohat
Khalid Mahmood,3530000000551,"House#234 st# fasail colony, Kohat",12/30/1998,Khyber Pakhtunkhwa ,923047877535,Alive,Kohat
Khalid Mahmood,3530000000552,"House#234 st# fasail colony, Kohat",12/31/1998,Khyber Pakhtunkhwa ,923047877535,Alive,Kohat
Khalid Mahmood,3530000000553,"House#234 st# fasail colony, Kohat",01/01/1999,Khyber Pakhtunkhwa ,923047877535,Alive,Kohat
Khalid Mahmood,3530000000554,"House#234 st# fasail colony, Kohat",01/02/1999,Khyber Pakhtunkhwa ,923047877535,Alive,Kohat
Khalid Mahmood,3530000000555,"House#234 st# fasail colony, Kohat",01/03/1999,Khyber Pakhtunkhwa ,923047877535,Alive,Kohat
Khalid Mahmood,3530000000556,"House#234 st# fasail colony, Kohat",01/04/1999,Khyber Pakhtunkhwa ,923047877535,Alive,Kohat
Khalid Mahmood,3530000000557,"House#234 st# fasail colony, Kohat",01/05/1999,Khyber Pakhtunkhwa ,923047877535,Alive,Kohat
Khalid Mahmood,3530000000558,"House#234 st# fasail colony, Kohat",01/06/1999,Khyber Pakhtunkhwa ,923047877535,Alive,Kohat
Khalid Mahmood,3530000000559,"House#234 st# fasail colony, Kohat",01/07/1999,Khyber Pakhtunkhwa ,923047877535,Alive,Kohat
Khalid Mahmood,3530000000560,"House#234 st# fasail colony, Kohat",01/08/1999,Khyber Pakhtunkhwa ,923047877535,Alive,Kohat
Khalid Mahmood,3530000000561,"House#234 st# fasail colony, Kohat",01/09/1999,Khyber Pakhtunkhwa ,923047877535,Alive,Kohat
Khalid Mahmood,3530000000562,"House#234 st# fasail colony, Kohat",01/10/1999,Khyber Pakhtunkhwa ,923047877535,Alive,Kohat
Khalid Mahmood,3530000000563,"House#234 st# fasail colony, Kohat",01/11/1999,Khyber Pakhtunkhwa ,923047877535,Alive,Kohat
Khalid Mahmood,3530000000564,"House#234 st# fasail colony, Kohat",01/12/1999,Khyber Pakhtunkhwa ,923047877535,Alive,Kohat
Khalid Mahmood,3530000000565,"House#234 st# fasail colony, Kohat",1/13/1999,Khyber Pakhtunkhwa ,923047877535,Alive,Kohat
Khalid Mahmood,3530000000566,"House#234 st# fasail colony, Kohat",1/14/1999,Khyber Pakhtunkhwa ,923047877535,Alive,Kohat
Khalid Mahmood,3530000000567,"House#234 st# fasail colony, Kohat",1/15/1999,Khyber Pakhtunkhwa ,923047877535,Alive,Kohat
Khalid Mahmood,3530000000568,"House#234 st# fasail colony, Kohat",1/16/1999,Khyber Pakhtunkhwa ,923047877535,Alive,Kohat
Khalid Mahmood,3530000000569,"House#234 st# fasail colony, Kohat",1/17/1999,Khyber Pakhtunkhwa ,923047877535,Alive,Kohat
Khalid Mahmood,3530000000570,"House#234 st# fasail colony, Kohat",1/18/1999,Khyber Pakhtunkhwa ,923047877535,Alive,Kohat
Khalid Mahmood,3530000000571,"House#234 st# fasail colony, Kohat",1/19/1999,Khyber Pakhtunkhwa ,923047877535,Alive,Kohat
Khalid Mahmood,3530000000572,"House#234 st# fasail colony, Kohat",1/20/1999,Khyber Pakhtunkhwa ,923047877535,Alive,Kohat
Khalid Mahmood,3530000000573,"House#234 st# fasail colony, Kohat",1/21/1999,Khyber Pakhtunkhwa ,923047877535,Alive,Kohat
Khalid Mahmood,3530000000574,"House#234 st# fasail colony, Kohat",1/22/1999,Khyber Pakhtunkhwa ,923047877535,Alive,Kohat
Khalid Mahmood,3530000000575,"House#234 st# fasail colony, Kohat",1/23/1999,Khyber Pakhtunkhwa ,923047877535,Alive,Kohat
Khalid Mahmood,3530000000576,"House#234 st# fasail colony, Kohat",1/24/1999,Khyber Pakhtunkhwa ,923047877535,Alive,Kohat
Khalid Mahmood,3530000000577,"House#234 st# fasail colony, Kohat",1/25/1999,Khyber Pakhtunkhwa ,923047877535,Alive,Kohat
Khalid Mahmood,3530000000578,"House#234 st# fasail colony, Kohat",1/26/1999,Khyber Pakhtunkhwa ,923047877535,Alive,Kohat
Khalid Mahmood,3530000000579,"House#234 st# fasail colony, Kohat",1/27/1999,Khyber Pakhtunkhwa ,923047877535,Alive,Kohat
Khalid Mahmood,3530000000580,"House#234 st# fasail colony, Kohat",1/28/1999,Khyber Pakhtunkhwa ,923047877535,Alive,Kohat
Khalid Mahmood,3530000000581,"House#234 st# fasail colony, Kohat",1/29/1999,Khyber Pakhtunkhwa ,923047877535,Alive,Kohat
Khalid Mahmood,3530000000582,"House#234 st# fasail colony, Kohat",1/30/1999,Khyber Pakhtunkhwa ,923047877535,Alive,Kohat
Khalid Mahmood,3530000000583,"House#234 st# fasail colony, Kohat",1/31/1999,Khyber Pakhtunkhwa ,923047877535,Alive,Kohat
Khalid Mahmood,3530000000584,"House#234 st# fasail colony, Kohat",02/01/1999,Khyber Pakhtunkhwa ,923047877535,Alive,Kohat
Khalid Mahmood,3530000000585,"House#234 st# fasail colony, Kohat",02/02/1999,Khyber Pakhtunkhwa ,923047877535,Alive,Kohat
Khalid Mahmood,3530000000586,"House#234 st# fasail colony, Kohat",02/03/1999,Khyber Pakhtunkhwa ,923047877535,Alive,Kohat
Khalid Mahmood,3530000000587,"House#234 st# fasail colony, Kohat",02/04/1999,Khyber Pakhtunkhwa ,923047877535,Alive,Kohat
Khalid Mahmood,3530000000588,"House#234 st# fasail colony, Kohat",02/05/1999,Khyber Pakhtunkhwa ,923047877535,Alive,Kohat
Javed Ahmad,3530000000589,"House#234 st# fasail colony, Kohat",02/06/1999,Khyber Pakhtunkhwa ,923047877535,Alive,Kohat
Javed Ahmad,3530000000590,"House#234 st# fasail colony, Kohat",02/07/1999,Khyber Pakhtunkhwa ,923047877535,Alive,Kohat
Javed Ahmad,3530000000591,"House#234 st# fasail colony, Kohat",02/08/1999,Khyber Pakhtunkhwa ,923047877535,Alive,Kohat
Javed Ahmad,3530000000592,"House#234 st# fasail colony, Kohat",02/09/1999,Khyber Pakhtunkhwa ,923047877535,Alive,Kohat
Javed Ahmad,3530000000593,"House#234 st# fasail colony, Kohat",02/10/1999,Khyber Pakhtunkhwa ,923047877535,Alive,Kohat
Javed Ahmad,3530000000594,"House#234 st# fasail colony, Kohat",02/11/1999,Khyber Pakhtunkhwa ,923047877535,Alive,Kohat
Javed Ahmad,3530000000595,"House#234 st# fasail colony, Kohat",02/12/1999,Khyber Pakhtunkhwa ,923047877535,Alive,Kohat
Javed Ahmad,3530000000596,"House#234 st# fasail colony, Kohat",2/13/1999,Khyber Pakhtunkhwa ,923047877535,Alive,Kohat
Javed Ahmad,3530000000597,"House#234 st# fasail colony, Kohat",2/14/1999,Khyber Pakhtunkhwa ,923047877535,Alive,Kohat
Javed Ahmad,3530000000598,"House#234 st# fasail colony, Kohat",2/15/1999,Khyber Pakhtunkhwa ,923047877535,Alive,Kohat
